[{"OBJECT_NAME":"PROBA-1","OBJECT_ID":"2001-049B","EPOCH":"2026-03-09T22:57:25.772256","MEAN_MOTION":15.07031721,"ECCENTRICITY":0.00568356,"INCLINATION":97.9638,"RA_OF_ASC_NODE":74.0417,"ARG_OF_PERICENTER":98.1776,"MEAN_ANOMALY":262.5903,"EPHEMERIS_TYPE":0,"CLASSIFICATION_TYPE":"U","NORAD_CAT_ID":26958,"ELEMENT_SET_NO":999,"REV_AT_EPOCH":32867,"BSTAR":0.00028513173,"MEAN_MOTION_DOT":4.362e-5,"MEAN_MOTION_DDOT":0},{"OBJECT_NAME":"ZIYUAN 3-04 (ZY 3-04)","OBJECT_ID":"2025-300A","EPOCH":"2026-03-09T21:46:53.524416","MEAN_MOTION":15.21435869,"ECCENTRICITY":0.00046089,"INCLINATION":97.4787,"RA_OF_ASC_NODE":147.5221,"ARG_OF_PERICENTER":299.6571,"MEAN_ANOMALY":60.4205,"EPHEMERIS_TYPE":0,"CLASSIFICATION_TYPE":"U","NORAD_CAT_ID":67131,"ELEMENT_SET_NO":999,"REV_AT_EPOCH":1274,"BSTAR":0.00028410959,"MEAN_MOTION_DOT":6.313e-5,"MEAN_MOTION_DDOT":0}]
